ORBCOMM-X               
1 21576U 91050C   25242.14088098  .00000411  00000+0  13472-3 0  9994
2 21576  98.3374 307.2146 0002944 342.2173  17.8914 14.43309924792783
ORBCOMM FM01            
1 23545U 95017A   25242.29418733  .00008649  00000+0  88548-3 0  9995
2 23545  69.9615 249.2423 0005186 239.7068 120.3574 14.90789969623553
ORBCOMM FM02            
1 23546U 95017B   25242.12327447  .00009581  00000+0  95459-3 0  9994
2 23546  69.9632 268.8036 0006305 233.8618 126.1954 14.91833686623182
ORBCOMM FM08            
1 25112U 97084A   25241.41977547  .00002093  00000+0  62180-3 0  9990
2 25112  45.0155  16.2644 0007010 248.1343 111.8764 14.46008812451977
ORBCOMM FM10            
1 25113U 97084B   25242.10283541  .00002572  00000+0  75818-3 0  9996
2 25113  45.0162  15.4960 0006098 220.3235 139.7165 14.45791847627217
ORBCOMM FM11            
1 25114U 97084C   25241.56733323  .00002027  00000+0  60933-3 0  9991
2 25114  45.0152  18.8328 0006760 219.6620 140.3737 14.45536223452097
ORBCOMM FM12            
1 25115U 97084D   25242.08162886  .00002197  00000+0  65682-3 0  9994
2 25115  45.0154  16.1075 0005962 218.6829 141.3596 14.45558452451960
ORBCOMM FM09            
1 25116U 97084E   25241.70570715  .00001865  00000+0  56535-3 0  9995
2 25116  45.0164  18.9186 0007169 209.4421 150.6028 14.45425464452119
