<?xml version="1.0" encoding="UTF-8"?>
<ndm xmlns:xsi="http://www.w3.org/2001/XMLSchema-instance" xsi:noNamespaceSchemaLocation="https://sanaregistry.org/r/ndmxml_unqualified/ndmxml-2.0.0-master-2.0.xsd">
<omm id="CCSDS_OMM_VERS" version="2.0">
<header><CREATION_DATE/><ORIGINATOR/></header><body><segment><metadata><OBJECT_NAME>ORBCOMM-X</OBJECT_NAME><OBJECT_ID>1991-050C</OBJECT_ID><CENTER_NAME>EARTH</CENTER_NAME><REF_FRAME>TEME</REF_FRAME><TIME_SYSTEM>UTC</TIME_SYSTEM><MEAN_ELEMENT_THEORY>SGP4</MEAN_ELEMENT_THEORY></metadata><data><meanElements><EPOCH>2025-08-30T03:22:52.116672</EPOCH><MEAN_MOTION>14.43309924</MEAN_MOTION><ECCENTRICITY>.0002944</ECCENTRICITY><INCLINATION>98.3374</INCLINATION><RA_OF_ASC_NODE>307.2146</RA_OF_ASC_NODE><ARG_OF_PERICENTER>342.2173</ARG_OF_PERICENTER><MEAN_ANOMALY>17.8914</MEAN_ANOMALY></meanElements><tleParameters><EPHEMERIS_TYPE>0</EPHEMERIS_TYPE><CLASSIFICATION_TYPE>U</CLASSIFICATION_TYPE><NORAD_CAT_ID>21576</NORAD_CAT_ID><ELEMENT_SET_NO>999</ELEMENT_SET_NO><REV_AT_EPOCH>79278</REV_AT_EPOCH><BSTAR>.13472199E-3</BSTAR><MEAN_MOTION_DOT>.411E-5</MEAN_MOTION_DOT><MEAN_MOTION_DDOT>0</MEAN_MOTION_DDOT></tleParameters></data></segment></body></omm>
<omm id="CCSDS_OMM_VERS" version="2.0">
<header><CREATION_DATE/><ORIGINATOR/></header><body><segment><metadata><OBJECT_NAME>ORBCOMM FM01</OBJECT_NAME><OBJECT_ID>1995-017A</OBJECT_ID><CENTER_NAME>EARTH</CENTER_NAME><REF_FRAME>TEME</REF_FRAME><TIME_SYSTEM>UTC</TIME_SYSTEM><MEAN_ELEMENT_THEORY>SGP4</MEAN_ELEMENT_THEORY></metadata><data><meanElements><EPOCH>2025-08-30T07:03:37.785312</EPOCH><MEAN_MOTION>14.90789969</MEAN_MOTION><ECCENTRICITY>.0005186</ECCENTRICITY><INCLINATION>69.9615</INCLINATION><RA_OF_ASC_NODE>249.2423</RA_OF_ASC_NODE><ARG_OF_PERICENTER>239.7068</ARG_OF_PERICENTER><MEAN_ANOMALY>120.3574</MEAN_ANOMALY></meanElements><tleParameters><EPHEMERIS_TYPE>0</EPHEMERIS_TYPE><CLASSIFICATION_TYPE>U</CLASSIFICATION_TYPE><NORAD_CAT_ID>23545</NORAD_CAT_ID><ELEMENT_SET_NO>999</ELEMENT_SET_NO><REV_AT_EPOCH>62355</REV_AT_EPOCH><BSTAR>.88547974E-3</BSTAR><MEAN_MOTION_DOT>.8649E-4</MEAN_MOTION_DOT><MEAN_MOTION_DDOT>0</MEAN_MOTION_DDOT></tleParameters></data></segment></body></omm>
<omm id="CCSDS_OMM_VERS" version="2.0">
<header><CREATION_DATE/><ORIGINATOR/></header><body><segment><metadata><OBJECT_NAME>ORBCOMM FM02</OBJECT_NAME><OBJECT_ID>1995-017B</OBJECT_ID><CENTER_NAME>EARTH</CENTER_NAME><REF_FRAME>TEME</REF_FRAME><TIME_SYSTEM>UTC</TIME_SYSTEM><MEAN_ELEMENT_THEORY>SGP4</MEAN_ELEMENT_THEORY></metadata><data><meanElements><EPOCH>2025-08-30T02:57:30.914208</EPOCH><MEAN_MOTION>14.91833686</MEAN_MOTION><ECCENTRICITY>.00063056</ECCENTRICITY><INCLINATION>69.9632</INCLINATION><RA_OF_ASC_NODE>268.8036</RA_OF_ASC_NODE><ARG_OF_PERICENTER>233.8618</ARG_OF_PERICENTER><MEAN_ANOMALY>126.1954</MEAN_ANOMALY></meanElements><tleParameters><EPHEMERIS_TYPE>0</EPHEMERIS_TYPE><CLASSIFICATION_TYPE>U</CLASSIFICATION_TYPE><NORAD_CAT_ID>23546</NORAD_CAT_ID><ELEMENT_SET_NO>999</ELEMENT_SET_NO><REV_AT_EPOCH>62318</REV_AT_EPOCH><BSTAR>.95459111E-3</BSTAR><MEAN_MOTION_DOT>.9581E-4</MEAN_MOTION_DOT><MEAN_MOTION_DDOT>0</MEAN_MOTION_DDOT></tleParameters></data></segment></body></omm>
<omm id="CCSDS_OMM_VERS" version="2.0">
<header><CREATION_DATE/><ORIGINATOR/></header><body><segment><metadata><OBJECT_NAME>ORBCOMM FM08</OBJECT_NAME><OBJECT_ID>1997-084A</OBJECT_ID><CENTER_NAME>EARTH</CENTER_NAME><REF_FRAME>TEME</REF_FRAME><TIME_SYSTEM>UTC</TIME_SYSTEM><MEAN_ELEMENT_THEORY>SGP4</MEAN_ELEMENT_THEORY></metadata><data><meanElements><EPOCH>2025-08-29T10:04:28.600608</EPOCH><MEAN_MOTION>14.46008812</MEAN_MOTION><ECCENTRICITY>.000701</ECCENTRICITY><INCLINATION>45.0155</INCLINATION><RA_OF_ASC_NODE>16.2644</RA_OF_ASC_NODE><ARG_OF_PERICENTER>248.1343</ARG_OF_PERICENTER><MEAN_ANOMALY>111.8764</MEAN_ANOMALY></meanElements><tleParameters><EPHEMERIS_TYPE>0</EPHEMERIS_TYPE><CLASSIFICATION_TYPE>U</CLASSIFICATION_TYPE><NORAD_CAT_ID>25112</NORAD_CAT_ID><ELEMENT_SET_NO>999</ELEMENT_SET_NO><REV_AT_EPOCH>45197</REV_AT_EPOCH><BSTAR>.62179944E-3</BSTAR><MEAN_MOTION_DOT>.2093E-4</MEAN_MOTION_DOT><MEAN_MOTION_DDOT>0</MEAN_MOTION_DDOT></tleParameters></data></segment></body></omm>
<omm id="CCSDS_OMM_VERS" version="2.0">
<header><CREATION_DATE/><ORIGINATOR/></header><body><segment><metadata><OBJECT_NAME>ORBCOMM FM10</OBJECT_NAME><OBJECT_ID>1997-084B</OBJECT_ID><CENTER_NAME>EARTH</CENTER_NAME><REF_FRAME>TEME</REF_FRAME><TIME_SYSTEM>UTC</TIME_SYSTEM><MEAN_ELEMENT_THEORY>SGP4</MEAN_ELEMENT_THEORY></metadata><data><meanElements><EPOCH>2025-08-30T02:28:04.979424</EPOCH><MEAN_MOTION>14.45791847</MEAN_MOTION><ECCENTRICITY>.00060985</ECCENTRICITY><INCLINATION>45.0162</INCLINATION><RA_OF_ASC_NODE>15.4960</RA_OF_ASC_NODE><ARG_OF_PERICENTER>220.3235</ARG_OF_PERICENTER><MEAN_ANOMALY>139.7165</MEAN_ANOMALY></meanElements><tleParameters><EPHEMERIS_TYPE>0</EPHEMERIS_TYPE><CLASSIFICATION_TYPE>U</CLASSIFICATION_TYPE><NORAD_CAT_ID>25113</NORAD_CAT_ID><ELEMENT_SET_NO>999</ELEMENT_SET_NO><REV_AT_EPOCH>62721</REV_AT_EPOCH><BSTAR>.75818277E-3</BSTAR><MEAN_MOTION_DOT>.2572E-4</MEAN_MOTION_DOT><MEAN_MOTION_DDOT>0</MEAN_MOTION_DDOT></tleParameters></data></segment></body></omm>
<omm id="CCSDS_OMM_VERS" version="2.0">
<header><CREATION_DATE/><ORIGINATOR/></header><body><segment><metadata><OBJECT_NAME>ORBCOMM FM11</OBJECT_NAME><OBJECT_ID>1997-084C</OBJECT_ID><CENTER_NAME>EARTH</CENTER_NAME><REF_FRAME>TEME</REF_FRAME><TIME_SYSTEM>UTC</TIME_SYSTEM><MEAN_ELEMENT_THEORY>SGP4</MEAN_ELEMENT_THEORY></metadata><data><meanElements><EPOCH>2025-08-29T13:36:57.591072</EPOCH><MEAN_MOTION>14.45536223</MEAN_MOTION><ECCENTRICITY>.00067605</ECCENTRICITY><INCLINATION>45.0152</INCLINATION><RA_OF_ASC_NODE>18.8328</RA_OF_ASC_NODE><ARG_OF_PERICENTER>219.6620</ARG_OF_PERICENTER><MEAN_ANOMALY>140.3737</MEAN_ANOMALY></meanElements><tleParameters><EPHEMERIS_TYPE>0</EPHEMERIS_TYPE><CLASSIFICATION_TYPE>U</CLASSIFICATION_TYPE><NORAD_CAT_ID>25114</NORAD_CAT_ID><ELEMENT_SET_NO>999</ELEMENT_SET_NO><REV_AT_EPOCH>45209</REV_AT_EPOCH><BSTAR>.60932998E-3</BSTAR><MEAN_MOTION_DOT>.2027E-4</MEAN_MOTION_DOT><MEAN_MOTION_DDOT>0</MEAN_MOTION_DDOT></tleParameters></data></segment></body></omm>
<omm id="CCSDS_OMM_VERS" version="2.0">
<header><CREATION_DATE/><ORIGINATOR/></header><body><segment><metadata><OBJECT_NAME>ORBCOMM FM12</OBJECT_NAME><OBJECT_ID>1997-084D</OBJECT_ID><CENTER_NAME>EARTH</CENTER_NAME><REF_FRAME>TEME</REF_FRAME><TIME_SYSTEM>UTC</TIME_SYSTEM><MEAN_ELEMENT_THEORY>SGP4</MEAN_ELEMENT_THEORY></metadata><data><meanElements><EPOCH>2025-08-30T01:57:32.733504</EPOCH><MEAN_MOTION>14.45558452</MEAN_MOTION><ECCENTRICITY>.00059627</ECCENTRICITY><INCLINATION>45.0154</INCLINATION><RA_OF_ASC_NODE>16.1075</RA_OF_ASC_NODE><ARG_OF_PERICENTER>218.6829</ARG_OF_PERICENTER><MEAN_ANOMALY>141.3596</MEAN_ANOMALY></meanElements><tleParameters><EPHEMERIS_TYPE>0</EPHEMERIS_TYPE><CLASSIFICATION_TYPE>U</CLASSIFICATION_TYPE><NORAD_CAT_ID>25115</NORAD_CAT_ID><ELEMENT_SET_NO>999</ELEMENT_SET_NO><REV_AT_EPOCH>45196</REV_AT_EPOCH><BSTAR>.65682281E-3</BSTAR><MEAN_MOTION_DOT>.2197E-4</MEAN_MOTION_DOT><MEAN_MOTION_DDOT>0</MEAN_MOTION_DDOT></tleParameters></data></segment></body></omm>
<omm id="CCSDS_OMM_VERS" version="2.0">
<header><CREATION_DATE/><ORIGINATOR/></header><body><segment><metadata><OBJECT_NAME>ORBCOMM FM09</OBJECT_NAME><OBJECT_ID>1997-084E</OBJECT_ID><CENTER_NAME>EARTH</CENTER_NAME><REF_FRAME>TEME</REF_FRAME><TIME_SYSTEM>UTC</TIME_SYSTEM><MEAN_ELEMENT_THEORY>SGP4</MEAN_ELEMENT_THEORY></metadata><data><meanElements><EPOCH>2025-08-29T16:56:13.097760</EPOCH><MEAN_MOTION>14.45425464</MEAN_MOTION><ECCENTRICITY>.00071694</ECCENTRICITY><INCLINATION>45.0164</INCLINATION><RA_OF_ASC_NODE>18.9186</RA_OF_ASC_NODE><ARG_OF_PERICENTER>209.4421</ARG_OF_PERICENTER><MEAN_ANOMALY>150.6028</MEAN_ANOMALY></meanElements><tleParameters><EPHEMERIS_TYPE>0</EPHEMERIS_TYPE><CLASSIFICATION_TYPE>U</CLASSIFICATION_TYPE><NORAD_CAT_ID>25116</NORAD_CAT_ID><ELEMENT_SET_NO>999</ELEMENT_SET_NO><REV_AT_EPOCH>45211</REV_AT_EPOCH><BSTAR>.56534981E-3</BSTAR><MEAN_MOTION_DOT>.1865E-4</MEAN_MOTION_DOT><MEAN_MOTION_DDOT>0</MEAN_MOTION_DDOT></tleParameters></data></segment></body></omm>

</ndm>
